start=new Date('2022-04-28T00:00:00.000Z').valueOf();
sats=[{"TLE_LINE2":"2 47365  53.0332  84.9040 0008177 279.2376  80.7718 15.76786713 72929","COUNTRY_CODE":"US","RA_OF_ASC_NODE":"84.9040","INCLINATION":"53.0332","GP_ID":"202157500","BSTAR":"0.00002611700000","RCS_SIZE":"LARGE","ECCENTRICITY":"0.00081770","EPHEMERIS_TYPE":"0","TLE_LINE1":"1 47365U 21005S   22117.36377195  .00003628  00000-0  26117-4 0  9997","SEMIMAJOR_AXIS":"6717.689","MEAN_MOTION_DOT":"0.00003628","FILE":"3418497","PERIAPSIS":"334.061","REF_FRAME":"TEME","OBJECT_TYPE":"PAYLOAD","LAUNCH_DATE":"2021-01-20","ELEMENT_SET_NO":"999","MEAN_ANOMALY":"80.7718","MEAN_ELEMENT_THEORY":"SGP4","MEAN_MOTION":"15.76786713","CLASSIFICATION_TYPE":"U","ARG_OF_PERICENTER":"279.2376","OBJECT_ID":"2021-005S","TIME_SYSTEM":"UTC","EPOCH":"2022-04-27T08:43:49.896480","SITE":"AFETR","MEAN_MOTION_DDOT":"0.0000000000000","REV_AT_EPOCH":"7292","PERIOD":"91.325","DECAY_DATE":null,"CENTER_NAME":"EARTH","APOAPSIS":"345.047","NORAD_CAT_ID":"47365","OBJECT_NAME":"STARLINK-2080"},{"SITE":"AFETR","MEAN_MOTION_DDOT":"0.0000000000000","REV_AT_EPOCH":"7018","PERIOD":"95.592","APOAPSIS":"548.323","CENTER_NAME":"EARTH","DECAY_DATE":null,"NORAD_CAT_ID":"47366","OBJECT_NAME":"STARLINK-2081","REF_FRAME":"TEME","OBJECT_TYPE":"PAYLOAD","MEAN_ELEMENT_THEORY":"SGP4","LAUNCH_DATE":"2021-01-20","ELEMENT_SET_NO":"999","MEAN_ANOMALY":"291.9374","CLASSIFICATION_TYPE":"U","MEAN_MOTION":"15.06394376","ARG_OF_PERICENTER":"68.1782","OBJECT_ID":"2021-005T","TIME_SYSTEM":"UTC","EPOCH":"2022-04-27T11:15:30.069792","GP_ID":"202157249","ECCENTRICITY":"0.00015770","RCS_SIZE":"LARGE","BSTAR":"0.00005949600000","TLE_LINE1":"1 47366U 21005T   22117.46909803  .00000605  00000-0  59496-4 0  9994","EPHEMERIS_TYPE":"0","SEMIMAJOR_AXIS":"6925.366","FILE":"3418497","MEAN_MOTION_DOT":"0.00000605","PERIAPSIS":"546.139","TLE_LINE2":"2 47366  53.0552 281.3281 0001577  68.1782 291.9374 15.06394376 70180","COUNTRY_CODE":"US","RA_OF_ASC_NODE":"281.3281","INCLINATION":"53.0552"},{"SEMIMAJOR_AXIS":"6925.382","PERIAPSIS":"546.125","FILE":"3418497","MEAN_MOTION_DOT":"-0.00000620","ECCENTRICITY":"0.00016200","RCS_SIZE":"LARGE","BSTAR":"-0.00002271900000","GP_ID":"202158501","EPHEMERIS_TYPE":"0","TLE_LINE1":"1 47367U 21005U   22117.56124803 -.00000620  00000-0 -22719-4 0  9992","RA_OF_ASC_NODE":"280.9193","COUNTRY_CODE":"US","INCLINATION":"53.0522","TLE_LINE2":"2 47367  53.0522 280.9193 0001620  57.7898 302.3248 15.06389158 70208","NORAD_CAT_ID":"47367","OBJECT_NAME":"STARLINK-2082","REV_AT_EPOCH":"7020","MEAN_MOTION_DDOT":"0.0000000000000","SITE":"AFETR","APOAPSIS":"548.369","CENTER_NAME":"EARTH","DECAY_DATE":null,"PERIOD":"95.593","TIME_SYSTEM":"UTC","OBJECT_ID":"2021-005U","EPOCH":"2022-04-27T13:28:11.829792","MEAN_ELEMENT_THEORY":"SGP4","LAUNCH_DATE":"2021-01-20","ELEMENT_SET_NO":"999","MEAN_ANOMALY":"302.3248","OBJECT_TYPE":"PAYLOAD","REF_FRAME":"TEME","ARG_OF_PERICENTER":"57.7898","CLASSIFICATION_TYPE":"U","MEAN_MOTION":"15.06389158"},{"TLE_LINE2":"2 47368  53.0549 280.0416 0001532  68.9520 291.1632 15.06393680 71179","RA_OF_ASC_NODE":"280.0416","COUNTRY_CODE":"US","INCLINATION":"53.0549","RCS_SIZE":"LARGE","ECCENTRICITY":"0.00015320","BSTAR":"0.00010826000000","GP_ID":"202164330","EPHEMERIS_TYPE":"0","TLE_LINE1":"1 47368U 21005V   22117.75291449  .00001331  00000-0  10826-3 0  9998","SEMIMAJOR_AXIS":"6925.368","PERIAPSIS":"546.172","FILE":"3418639","MEAN_MOTION_DOT":"0.00001331","LAUNCH_DATE":"2021-01-20","ELEMENT_SET_NO":"999","MEAN_ANOMALY":"291.1632","MEAN_ELEMENT_THEORY":"SGP4","REF_FRAME":"TEME","OBJECT_TYPE":"PAYLOAD","ARG_OF_PERICENTER":"68.9520","CLASSIFICATION_TYPE":"U","MEAN_MOTION":"15.06393680","TIME_SYSTEM":"UTC","OBJECT_ID":"2021-005V","EPOCH":"2022-04-27T18:04:11.811936","REV_AT_EPOCH":"7117","MEAN_MOTION_DDOT":"0.0000000000000","SITE":"AFETR","APOAPSIS":"548.294","CENTER_NAME":"EARTH","DECAY_DATE":null,"PERIOD":"95.593","NORAD_CAT_ID":"47368","OBJECT_NAME":"STARLINK-2084"},{"TIME_SYSTEM":"UTC","OBJECT_ID":"2021-005W","EPOCH":"2022-04-27T11:50:00.268224","ELEMENT_SET_NO":"999","LAUNCH_DATE":"2021-01-20","MEAN_ELEMENT_THEORY":"SGP4","MEAN_ANOMALY":"299.9923","REF_FRAME":"TEME","OBJECT_TYPE":"PAYLOAD","ARG_OF_PERICENTER":"60.1226","MEAN_MOTION":"15.06394320","CLASSIFICATION_TYPE":"U","NORAD_CAT_ID":"47369","OBJECT_NAME":"STARLINK-2085","MEAN_MOTION_DDOT":"0.0000000000000","REV_AT_EPOCH":"7047","SITE":"AFETR","DECAY_DATE":null,"CENTER_NAME":"EARTH","APOAPSIS":"548.347","PERIOD":"95.593","RA_OF_ASC_NODE":"261.2255","COUNTRY_CODE":"US","INCLINATION":"53.0530","TLE_LINE2":"2 47369  53.0530 261.2255 0001611  60.1226 299.9923 15.06394320 70470","SEMIMAJOR_AXIS":"6925.366","PERIAPSIS":"546.115","MEAN_MOTION_DOT":"-0.00000473","FILE":"3418497","BSTAR":"-0.00001283100000","ECCENTRICITY":"0.00016110","RCS_SIZE":"LARGE","GP_ID":"202157000","TLE_LINE1":"1 47369U 21005W   22117.49305866 -.00000473  00000-0 -12831-4 0  9996","EPHEMERIS_TYPE":"0"},{"COUNTRY_CODE":"US","RA_OF_ASC_NODE":"241.1144","INCLINATION":"53.0558","TLE_LINE2":"2 47370  53.0558 241.1144 0002311  50.7804 309.3390 15.06387905 70768","SEMIMAJOR_AXIS":"6925.386","FILE":"3418497","MEAN_MOTION_DOT":"0.00002744","PERIAPSIS":"545.650","GP_ID":"202157750","RCS_SIZE":"LARGE","ECCENTRICITY":"0.00023110","BSTAR":"0.00020309000000","TLE_LINE1":"1 47370U 21005X   22117.51702403  .00002744  00000-0  20309-3 0  9998","EPHEMERIS_TYPE":"0","OBJECT_ID":"2021-005X","TIME_SYSTEM":"UTC","EPOCH":"2022-04-27T12:24:30.876192","REF_FRAME":"TEME","OBJECT_TYPE":"PAYLOAD","LAUNCH_DATE":"2021-01-20","ELEMENT_SET_NO":"999","MEAN_ELEMENT_THEORY":"SGP4","MEAN_ANOMALY":"309.3390","MEAN_MOTION":"15.06387905","CLASSIFICATION_TYPE":"U","ARG_OF_PERICENTER":"50.7804","NORAD_CAT_ID":"47370","OBJECT_NAME":"STARLINK-2086","SITE":"AFETR","MEAN_MOTION_DDOT":"0.0000000000000","REV_AT_EPOCH":"7076","PERIOD":"95.593","APOAPSIS":"548.851","CENTER_NAME":"EARTH","DECAY_DATE":null},{"INCLINATION":"53.0533","RA_OF_ASC_NODE":"279.9864","COUNTRY_CODE":"US","TLE_LINE2":"2 47371  53.0533 279.9864 0001573  70.0895 290.0263 15.06404470 70238","PERIAPSIS":"546.111","MEAN_MOTION_DOT":"0.00006405","FILE":"3418644","SEMIMAJOR_AXIS":"6925.335","TLE_LINE1":"1 47371U 21005Y   22117.76766434  .00006405  00000-0  44847-3 0  9991","EPHEMERIS_TYPE":"0","BSTAR":"0.00044847000000","RCS_SIZE":"LARGE","ECCENTRICITY":"0.00015730","GP_ID":"202164845","EPOCH":"2022-04-27T18:25:26.198976","TIME_SYSTEM":"UTC","OBJECT_ID":"2021-005Y","ARG_OF_PERICENTER":"70.0895","CLASSIFICATION_TYPE":"U","MEAN_MOTION":"15.06404470","LAUNCH_DATE":"2021-01-20","MEAN_ANOMALY":"290.0263","ELEMENT_SET_NO":"999","MEAN_ELEMENT_THEORY":"SGP4","OBJECT_TYPE":"PAYLOAD","REF_FRAME":"TEME","OBJECT_NAME":"STARLINK-2088","NORAD_CAT_ID":"47371","DECAY_DATE":null,"CENTER_NAME":"EARTH","APOAPSIS":"548.289","PERIOD":"95.592","MEAN_MOTION_DDOT":"0.0000000000000","REV_AT_EPOCH":"7023","SITE":"AFETR"},{"NORAD_CAT_ID":"47372","OBJECT_NAME":"STARLINK-2089","MEAN_MOTION_DDOT":"0.0000000000000","REV_AT_EPOCH":"7026","SITE":"AFETR","DECAY_DATE":null,"CENTER_NAME":"EARTH","APOAPSIS":"548.318","PERIOD":"95.593","TIME_SYSTEM":"UTC","OBJECT_ID":"2021-005Z","EPOCH":"2022-04-27T12:47:41.829792","MEAN_ANOMALY":"273.5453","LAUNCH_DATE":"2021-01-20","ELEMENT_SET_NO":"999","MEAN_ELEMENT_THEORY":"SGP4","REF_FRAME":"TEME","OBJECT_TYPE":"PAYLOAD","ARG_OF_PERICENTER":"86.5715","CLASSIFICATION_TYPE":"U","MEAN_MOTION":"15.06391826","SEMIMAJOR_AXIS":"6925.374","PERIAPSIS":"546.159","MEAN_MOTION_DOT":"-0.00000305","FILE":"3418497","BSTAR":"-0.00000160490000","RCS_SIZE":"LARGE","ECCENTRICITY":"0.00015590","GP_ID":"202158747","EPHEMERIS_TYPE":"0","TLE_LINE1":"1 47372U 21005Z   22117.53312303 -.00000305  00000-0 -16049-5 0  9999","RA_OF_ASC_NODE":"276.0302","COUNTRY_CODE":"US","INCLINATION":"53.0570","TLE_LINE2":"2 47372  53.0570 276.0302 0001559  86.5715 273.5453 15.06391826 70262"},{"OBJECT_NAME":"STARLINK-2092","NORAD_CAT_ID":"47373","PERIOD":"95.592","CENTER_NAME":"EARTH","DECAY_DATE":null,"APOAPSIS":"548.308","SITE":"AFETR","MEAN_MOTION_DDOT":"0.0000000000000","REV_AT_EPOCH":"7018","EPOCH":"2022-04-27T10:22:25.110912","OBJECT_ID":"2021-005AA","TIME_SYSTEM":"UTC","CLASSIFICATION_TYPE":"U","MEAN_MOTION":"15.06405846","ARG_OF_PERICENTER":"63.3559","REF_FRAME":"TEME","OBJECT_TYPE":"PAYLOAD","LAUNCH_DATE":"2021-01-20","ELEMENT_SET_NO":"999","MEAN_ELEMENT_THEORY":"SGP4","MEAN_ANOMALY":"296.7594","MEAN_MOTION_DOT":"0.00003877","FILE":"3418497","PERIAPSIS":"546.083","SEMIMAJOR_AXIS":"6925.331","EPHEMERIS_TYPE":"0","TLE_LINE1":"1 47373U 21005AA  22117.43223508  .00003877  00000-0  27896-3 0  9992","GP_ID":"202157501","BSTAR":"0.00027896000000","RCS_SIZE":"LARGE","ECCENTRICITY":"0.00016060","INCLINATION":"53.0536","COUNTRY_CODE":"US","RA_OF_ASC_NODE":"281.4773","TLE_LINE2":"2 47373  53.0536 281.4773 0001606  63.3559 296.7594 15.06405846 70181"},{"PERIOD":"95.592","CENTER_NAME":"EARTH","DECAY_DATE":null,"APOAPSIS":"548.506","SITE":"AFETR","REV_AT_EPOCH":"7018","MEAN_MOTION_DDOT":"0.0000000000000","OBJECT_NAME":"STARLINK-2093","NORAD_CAT_ID":"47374","CLASSIFICATION_TYPE":"U","MEAN_MOTION":"15.06401601","ARG_OF_PERICENTER":"62.1017","REF_FRAME":"TEME","OBJECT_TYPE":"PAYLOAD","ELEMENT_SET_NO":"999","LAUNCH_DATE":"2021-01-20","MEAN_ELEMENT_THEORY":"SGP4","MEAN_ANOMALY":"298.0161","EPOCH":"2022-04-27T10:52:54.504768","OBJECT_ID":"2021-005AB","TIME_SYSTEM":"UTC","EPHEMERIS_TYPE":"0","TLE_LINE1":"1 47374U 21005AB  22117.45340862 -.00000412  00000-0 -87156-5 0  9999","GP_ID":"202157250","BSTAR":"-0.00000871560000","ECCENTRICITY":"0.00018730","RCS_SIZE":"LARGE","MEAN_MOTION_DOT":"-0.00000412","FILE":"3418497","PERIAPSIS":"545.912","SEMIMAJOR_AXIS":"6925.344","TLE_LINE2":"2 47374  53.0485 281.3951 0001873  62.1017 298.0161 15.06401601 70184","INCLINATION":"53.0485","COUNTRY_CODE":"US","RA_OF_ASC_NODE":"281.3951"}];
